#dP2021  1 11  0  0  0.00000000     289 ORBIT ITRF  BHN ESOC                    
## 2140  86400.00000000   300.00000000 59225 0.0000000000000                    
+  110   G13G28G21G22G07G05G20G31G17G15G16G29G12G19G02G25G01                    
+        G30G24G27G06G09G03G32G26G08G10G04G18G23G14R09R11R20                    
+        R19R13R01R22R16R08R03R07R02R17R14R18R21R05R15R12R04                    
+        R24E11E12E19E18E14E26E24E30E08E09E01E02E07E03E04E05                    
+        E21E25E27E31E36E13E15E33C11C12C14C19C20C27C28C22C21                    
+        C29C30C23C24C26C25C32C33C35C34C36C37C06C07C08C09C10                    
+        C13C16C38C39C40J01J02J03  0  0  0  0  0  0  0  0  0                    
++         4  5  5  4  4  4  4  5  5  4  5  5  5  5  5  4  5                    
++         4  4  4  5  4  4  4  4  5  4  4  5  4  5  4  5  6                    
++         3  6  5  6  5  5  5  5  5  5  5  5  4  4  5  5  4                    
++         4  5  5  5  4  5  5  5  5  4  5  5  5  4  5  5  5                    
++         4  5  4  5  5  5  5  5  5  6  4  6  5  5  5  6  6                    
++         5  5  5  6  6  5  5  5  6  5  6  6  6  6  7  6  6                    
++         7  7  8  2  7  7  5  8  0  0  0  0  0  0  0  0  0                    
%c M  cc GPS ccc cccc cccc cccc cccc ccccc ccccc ccccc ccccc                    
%c cc cc ccc ccc cccc cccc cccc cccc ccccc ccccc ccccc ccccc                    
%f  0.0000000  0.000000000  0.00000000000  0.000000000000000                    
%f  0.0000000  0.000000000  0.00000000000  0.000000000000000                    
%i    0    0    0    0      0      0      0      0         0                    
%i    0    0    0    0      0      0      0      0         0                    
/* CCCCCCCCCCCCCCCCCCCCCCCCCCCCCCCCCCCCCCCCCCCCCCCCCCCCCCCCCCCCCCCCCCCCCCCCCCCCC
/* CCCCCCCCCCCCCCCCCCCCCCCCCCCCCCCCCCCCCCCCCCCCCCCCCCCCCCCCCCCCCCCCCCCCCCCCCCCCC
/* CCCCCCCCCCCCCCCCCCCCCCCCCCCCCCCCCCCCCCCCCCCCCCCCCCCCCCCCCCCCCCCCCCCCCCCCCCCCC
/* PCV:IGS        OL/AL:EOT11A   NONE     YN ORB:CoN CLK:CoN                    
*  2021  1 11 17 30  0.00000000                                                 
PG13   2232.520693  15102.971714 -21863.155515     84.806232                    
PG28 -12265.891387  19524.522268 -12777.059073    631.085916                    
PG21 -20024.964090 -16557.044661  -5710.362893     85.910665                    
PG22 -11449.071647 -18802.955852  15170.825555   -699.983885                    
PG07 -22105.156331  -3034.445444 -14435.831969     17.754238                    
PG05   3832.688601  25243.540394  -7119.609009    -30.723782                    
PG20  14990.222469  -6696.757686 -20895.784653    525.210711                    
PG31   5307.718383 -14752.734989  21308.216104    -93.270073                    
PG17 -20264.616046  14752.298393   9193.730757    378.924129                    
PG15  15273.968519   8527.552132 -20429.003875   -177.022471                    
PG16   -276.577929 -25467.261416  -6849.286327   -263.608359                    
PG29  24843.361330  -3374.121709   8795.095750   -273.843803                    
PG12  10459.498959  15414.660800  18749.684878     14.348546                    
PG19 -15143.790863  15758.406864  14749.002085    -53.255064                    
PG02   7249.075882  18824.082087  17933.358042   -564.853019                    
PG25  15055.639378    399.692220  21621.118625     57.719206                    
PG01 -22328.769750 -14630.282673   1401.139220    781.876254                    
PG30 -15347.042216   7321.250685 -20406.141515   -367.295523                    
PG24  21384.144861  15782.875081  -3467.454091      3.814592                    
PG27    332.699470 -16036.764962 -21252.391361    -53.937530                    
PG06  -7054.740073  13051.373890  22092.391058     -4.625174                    
PG09 -24654.492470   5896.474375   7897.013542   -311.649460                    
PG03 -13088.100368 -10974.240551  20286.628324    -53.663346                    
PG32  18966.883632 -16177.878943   9009.325008     13.737048                    
PG26   4853.033492 -25432.870628   5217.910276     28.401248                    
PG08 -13134.329857  -9643.982563 -21023.316457     -6.223248                    
PG10  11673.324422 -18499.183491 -14771.503711    -36.902011                    
PG04 -19680.817758  -4643.982665  17247.562396   -171.916834                    
PG18  20597.025926    641.545271 -16794.124684    340.482341                    
PG23  14785.171723  -8019.404954 -20571.682192    115.612108                    
PG14 -13397.217754  16497.610106 -15937.539007     83.731724                    
PR09  -2106.166672 -21280.089731  13971.510122     18.026202                    
PR11 -14382.613333 -11049.311691 -17930.682649      4.639172                    
PR20   5990.028306  -9430.002591 -22911.930233   -430.924255                    
PR19  22761.201652  -1857.338317 -11361.322365   -127.495033                    
PR13   2026.734298  20956.559760 -14424.119869    -49.190475                    
PR01 -17233.556241  14476.789083  11990.816374     73.334343                    
PR22 -24863.872381  -4694.669811  -3610.148607    -91.968704                    
PR16   8255.758759  -8254.800950  22642.314909    -10.115331                    
PR08 -13778.834407   1519.795094  21466.414414    -56.817980                    
PR03   2355.904675  13882.943221 -21245.734798     28.936322                    
PR07  -2922.382079 -13343.460412  21563.034748    -42.154669                    
PR02 -10613.255033  21417.629092  -8958.648144    462.429443                    
PR17  13708.748713  10235.943623  18951.122062    390.354942                    
PR14  11616.858301  22505.296480   3019.002633     59.724725                    
PR18  24507.003747   5077.288146   4808.380215     62.797025                    
PR21 -14683.104682 -10011.442524 -18278.949441   -179.687618                    
PR05  17392.519008 -15971.200535  -9609.655328     64.535545                    
PR15  14271.089441  10884.145826  18146.549129    105.928169                    
PR12  -8640.052062   7296.789147 -22842.640166    195.814647                    
PR04  13650.170691  -1574.526230 -21466.916636     69.560834                    
PR24  -5179.354614  10135.475142  22850.035351     27.392109                    
PE11  26940.055366   2223.294169 -12045.622382   6486.232644                    
PE12  24516.343573  14897.345308   7272.191433   5411.789600                    
PE19  -5056.518936  21448.258196 -19767.870327    175.880810                    
PE18 -25206.311241  -2976.904716 -14251.851001  -1411.208792                    
PE14  26638.372809  -8513.273054   2399.882770  -1291.238843                    
PE26 -13034.854584  11760.345839  23842.287690   2276.992853                    
PE24  16476.820009  -1547.325568  24531.668231   -684.206175                    
PE30 -14119.160768 -19737.003734 -16940.781788   3271.074090                    
PE08 -16119.700750  -8187.359990  23429.827258   6063.539311                    
PE09  25413.699905  -9196.789516 -12089.543067   5802.455929                    
PE01   3716.057810  29371.934159   -318.427888  -1022.651850                    
PE02  -3784.979296 -29343.500921    212.191813    190.302699                    
PE07 -25482.457944   8875.884443  12158.162948   -486.371868                    
PE03   2699.266287 -20815.794392  20866.839772   -386.208316                    
PE04  15930.578598   8631.409680 -23408.212118   -686.766579                    
PE05  20006.568289 -20958.270121   6048.351344   -313.740342                    
PE21  -8576.663098  22514.690168 -17204.767333   -642.298601                    
PE25   8687.022006 -22362.281712  17337.336501   -524.118189                    
PE27 -16323.347861   2375.241566 -24574.503959     53.241858                    
PE31  14438.648216  19056.541407  17466.132081   -477.271191                    
PE36  13595.594957 -11268.201108 -23743.648343    455.603115                    
PE13 -27067.508407  -2440.007948  11744.901268    410.069173                    
PE15 -24632.497003 -14744.727470  -7200.205612    834.760203                    
PE33   7688.027712  18369.534164  21911.199174   -464.786541                    
PC11  25417.635104  -7250.749018  -8951.051209   -879.306809                    
PC12  26255.222652   3992.541441   8650.612651    723.239375                    
PC14  18366.447099 -15323.938267 -14393.555984   -119.088275                    
PC19 -15350.230411  22476.718117   6154.626940    687.176862                    
PC20 -18448.896080   7073.235195  19708.961663   -909.419406                    
PC27 -20388.695161 -10021.827477 -16230.239656    464.658262                    
PC28   -871.110505 -15835.957119 -22953.443533   -123.022420                    
PC22  -3265.098192  25248.301007 -11404.298375   -841.638043                    
PC21  10652.670698  13266.914123 -22103.522379   -788.951370                    
PC29 -18572.090994  13090.633165  16200.884270    337.133028                    
PC30 -27811.993846   2395.081187   -453.041949    429.796067                    
PC23  -6466.920333 -24527.100977  11622.432650   -882.569985                    
PC24  19670.419311   4634.194767  19248.386925   -740.473959                    
PC26  19084.608564  19460.701479   6071.573519    964.336852                    
PC25   8580.513778 -14929.534954  21949.193780   -893.831078                    
PC32 -10752.324847 -13232.228001  22102.725801   -882.994989                    
PC33  15265.284578 -22530.184145  -6198.762374   -910.209246                    
PC35   1065.948456  15896.872651  22911.749891   -470.502768                    
PC34  27757.066987  -2748.542086   -188.480270   -765.532382                    
PC36  -9138.643160  14480.246731 -22015.681924   -779.673285                    
PC37 -18311.135996 -20354.885215  -5312.098148   -860.703490                    
PC06 -22700.081959  24304.358639 -25781.827490    126.024075                    
PC07 -13903.460451  38890.942284  -6865.031602   -217.513407                    
PC08  -4635.053070  24185.037510  34414.437216   -885.485363                    
PC09  -4865.894611  25148.061808 -33310.091391    810.307473                    
PC10  -4999.995197  41425.549182   4270.803691   -105.975383                    
PC13   8236.993942  31934.971850  26546.075627     93.356759                    
PC16 -20935.437895  24584.632538 -27149.114711   -656.834078                    
PC38  -4700.334388  26484.932562  32524.483926    123.235267                    
PC39 -17298.043422  26155.801771 -28247.166991     27.255994                    
PC40 -12949.846558  40045.876825    -52.770406    120.160227                    
PJ01 -33530.860104  24875.089815  10725.236629   -336.267654                    
PJ02 -19878.374916  25175.976636 -22853.295131      0.652802                    
PJ03 -28643.048980  26611.169815  20728.482343     -0.085987                    
EOF                                                                             
